NORAD_CAT_ID,OBJECT_NAME,OBJECT_TYPE,EPOCH,MEAN_MOTION,ECCENTRICITY,INCLINATION,RA_OF_ASC_NODE,ARG_OF_PERICENTER,MEAN_ANOMALY,BSTAR,MEAN_MOTION_DOT,MEAN_MOTION_DDOT,TLE_LINE0,TLE_LINE1,TLE_LINE2,SEMIMAJOR_AXIS,PERIOD,APOGEE,PERIGEE,DECAYED
55400.0,STARLINK-5632,PAYLOAD,2023-05-04 21:34:27,15.6992094,0.0003407,69.9968,187.6147,268.9506,91.1299,1.944e-05,2.125e-05,0.0,0 STARLINK-5632,1 55400U 23014K   23124.89893375  .00002125  00000-0  19440-4 0  9990,2 55400  69.9968 187.6147 0003407 268.9506  91.1299 15.69920940 15773,6737.26,91.724,361.421,356.83,0.0
55400.0,STARLINK-5632,PAYLOAD,2023-05-05 12:51:58,15.69931201,0.0003135,69.9975,185.8223,266.4665,93.6173,2.2272e-05,2.467e-05,0.0,0 STARLINK-5632,1 55400U 23014K   23125.53609683  .00002467  00000-0  22272-4 0  9995,2 55400  69.9975 185.8223 0003135 266.4665  93.6173 15.69931201 15874,6737.231,91.724,361.208,356.984,0.0
55400.0,STARLINK-5632,PAYLOAD,2023-05-06 13:20:00,15.69927571,0.0003115,69.9992,182.9598,272.0681,88.0158,2.1868e-05,2.418e-05,0.0,0 STARLINK-5632,1 55400U 23014K   23126.55556463  .00002418  00000-0  21868-4 0  9991,2 55400  69.9992 182.9598 0003115 272.0681  88.0158 15.69927571 16030,6737.241,91.724,361.205,357.008,0.0
55400.0,STARLINK-5632,PAYLOAD,2023-05-06 20:58:46,15.69928542,0.0003673,69.9974,182.0605,268.4689,91.6086,1.8859e-05,2.056e-05,0.0,0 STARLINK-5632,1 55400U 23014K   23126.87414484  .00002056  00000-0  18859-4 0  9996,2 55400  69.9974 182.0605 0003673 268.4689  91.6086 15.69928542 15146,6737.238,91.724,361.578,356.629,0.0
55400.0,STARLINK-5632,PAYLOAD,2023-05-07 12:16:18,15.69910573,0.0003613,69.9992,180.2712,261.1879,98.8908,-1.6365e-05,-2.179e-05,0.0,0 STARLINK-5632,1 55400U 23014K   23127.51132397 -.00002179  00000-0 -16365-4 0  9996,2 55400  69.9992 180.2712 0003613 261.1879  98.8908 15.69910573 15248,6737.29,91.725,361.589,356.721,0.0
55400.0,STARLINK-5632,PAYLOAD,2023-05-08 05:05:33,15.69930057,0.0003729,69.9977,178.3009,264.3464,95.7306,3.2046e-05,3.643e-05,0.0,0 STARLINK-5632,1 55400U 23014K   23128.21219906  .00003643  00000-0  32046-4 0  9995,2 55400  69.9977 178.3009 0003729 264.3464  95.7306 15.69930057 15350,6737.234,91.724,361.611,356.587,0.0
55400.0,STARLINK-5632,PAYLOAD,2023-05-08 20:23:05,15.69922062,0.0003631,69.9971,176.5103,268.3999,91.6781,1.2006e-05,1.231e-05,0.0,0 STARLINK-5632,1 55400U 23014K   23128.84937016  .00001231  00000-0  12006-4 0  9998,2 55400  69.9971 176.5103 0003631 268.3999  91.6781 15.69922062 15458,6737.257,91.724,361.568,356.676,0.0
55400.0,STARLINK-5632,PAYLOAD,2023-05-09 11:40:36,15.69929094,0.0003639,69.9991,174.7195,271.7307,88.3472,3.3901e-05,3.866e-05,0.0,0 STARLINK-5632,1 55400U 23014K   23129.48653634  .00003866  00000-0  33901-4 0  9993,2 55400  69.9991 174.7195 0003639 271.7307  88.3472 15.69929094 16497,6737.237,91.724,361.554,356.65,0.0
55400.0,STARLINK-5632,PAYLOAD,2023-05-10 10:36:53,15.69929645,0.000331,69.9994,172.0319,262.5882,97.4937,8.268e-08,-2.03e-06,0.0,0 STARLINK-5632,1 55400U 23014K   23130.44228493 -.00000203  00000-0  82680-7 0  9996,2 55400  69.9994 172.0319 0003310 262.5882  97.4937 15.69929645 15703,6737.235,91.724,361.33,356.87,0.0
55400.0,STARLINK-5632,PAYLOAD,2023-05-10 19:46:53,15.70609565,0.0005641,69.9976,170.9561,292.4294,67.6304,0.0012955,0.00163279,0.0,0 STARLINK-5632,1 55400U 23014K   23130.82423230  .00163279  00000-0  12955-2 0  9999,2 55400  69.9976 170.9561 0005641 292.4294  67.6304 15.70609565 15768,6735.291,91.684,360.955,353.356,0.0
55400.0,STARLINK-5632,PAYLOAD,2023-05-11 03:26:19,15.69679418,0.000177,69.9975,170.0593,242.6194,117.4821,-0.00049151,-0.00058296,0.0,0 STARLINK-5632,1 55400U 23014K   23131.14327954 -.00058296  00000-0 -49151-3 0  9994,2 55400  69.9975 170.0593 0001770 242.6194 117.4821 15.69679418 15814,6737.951,91.738,361.009,358.624,0.0
55400.0,STARLINK-5632,PAYLOAD,2023-05-11 04:00:01,15.69920211,0.0003685,69.9999,169.9938,264.8741,228.073,0.00017557,0.00020948,0.0,0 STARLINK-5632,1 55400U 23014K   23131.16668981  .00020948  00000-0  17557-3 0  9990,2 55400  69.9999 169.9938 0003685 264.8741 228.0730 15.69920211 15819,6737.262,91.724,361.61,356.645,0.0
55400.0,STARLINK-5632,PAYLOAD,2023-05-11 20:15:27,15.69905072,0.0003609,69.9993,168.0904,270.8883,89.1899,-4.6268e-05,-5.768e-05,0.0,0 STARLINK-5632,1 55400U 23014K   23131.84406832 -.00005768  00000-0 -46268-4 0  9997,2 55400  69.9993 168.0904 0003609 270.8883  89.1899 15.69905072 15928,6737.306,91.725,361.602,356.739,0.0
55400.0,STARLINK-5632,PAYLOAD,2023-05-12 03:54:12,15.69926262,0.0003788,69.9988,167.1949,269.4938,90.5823,1.0094e-05,1.001e-05,0.0,0 STARLINK-5632,1 55400U 23014K   23132.16263963  .00001001  00000-0  10094-4 0  9991,2 55400  69.9988 167.1949 0003788 269.4938  90.5823 15.69926262 16911,6737.245,91.724,361.662,356.558,0.0
55400.0,STARLINK-5632,PAYLOAD,2023-05-12 19:11:43,15.69928821,0.0003925,69.9982,165.4028,260.7306,99.3446,2.2009e-05,2.435e-05,0.0,0 STARLINK-5632,1 55400U 23014K   23132.79980431  .00002435  00000-0  22009-4 0  9997,2 55400  69.9982 165.4028 0003925 260.7306  99.3446 15.69928821 16078,6737.238,91.724,361.747,356.458,0.0
55400.0,STARLINK-5632,PAYLOAD,2023-05-13 12:01:00,15.69918555,0.0003316,69.9992,163.4297,278.5894,81.4925,3.5846e-06,2.18e-06,0.0,0 STARLINK-5632,1 55400U 23014K   23133.50069617  .00000218  00000-0  35846-5 0  9992,2 55400  69.9992 163.4297 0003316 278.5894  81.4925 15.69918555 16187,6737.267,91.725,361.366,356.898,0.0
55400.0,STARLINK-5632,PAYLOAD,2023-05-14 06:00:00,15.69953963,0.000347,69.9998,161.3249,274.1155,359.6234,-0.00052191,-0.00062582,0.0,0 STARLINK-5632,1 55400U 23014K   23134.25001157 -.00062582  00000-0 -52191-3 0  9994,2 55400  69.9998 161.3249 0003470 274.1155 359.6234 15.69953963 16309,6737.166,91.722,361.369,356.693,0.0
55400.0,STARLINK-5632,PAYLOAD,2023-05-14 14:00:01,15.69923406,0.0003448,69.9995,160.3876,277.4121,79.6743,-7.4001e-05,-9.101e-05,0.0,0 STARLINK-5632,1 55400U 23014K   23134.58334491 -.00009101  00000-0 -74001-4 0  9993,2 55400  69.9995 160.3876 0003448 277.4121  79.6743 15.69923406  1302,6737.253,91.724,361.441,356.795,0.0
55400.0,STARLINK-5632,PAYLOAD,2023-05-14 22:00:00,15.69864363,0.0003386,69.9996,159.4507,269.3787,171.0528,0.00098278,0.00119358,0.0,0 STARLINK-5632,1 55400U 23014K   23134.91667824  .00119358  00000-0  98278-3 0  9994,2 55400  69.9996 159.4507 0003386 269.3787 171.0528 15.69864363 16403,6737.422,91.728,361.568,357.006,0.0
55400.0,STARLINK-5632,PAYLOAD,2023-05-15 05:18:18,15.6992514,0.0002996,69.9992,158.5942,277.2316,82.8539,1.0615e-06,-8.5e-07,0.0,0 STARLINK-5632,1 55400U 23014K   23135.22104480 -.00000085  00000-0  10615-5 0  9991,2 55400  69.9992 158.5942 0002996 277.2316  82.8539 15.69925140 16451,6737.248,91.724,361.132,357.095,0.0
55400.0,STARLINK-5632,PAYLOAD,2023-05-15 11:25:19,15.69910055,0.0003063,69.9991,157.8783,283.135,76.9504,-1.6078e-05,-2.144e-05,0.0,0 STARLINK-5632,1 55400U 23014K   23135.47591854 -.00002144  00000-0 -16078-4 0  9990,2 55400  69.9991 157.8783 0003063 283.1350  76.9504 15.69910055 16494,6737.291,91.725,361.22,357.093,0.0
55400.0,STARLINK-5632,PAYLOAD,2023-05-15 19:04:04,15.69917531,0.0003161,69.9983,156.9818,274.5757,85.5078,9.8866e-06,9.76e-06,0.0,0 STARLINK-5632,1 55400U 23014K   23135.79449942  .00000976  00000-0  98866-5 0  9990,2 55400  69.9983 156.9818 0003161 274.5757  85.5078 15.69917531 17486,6737.27,91.725,361.265,357.005,0.0
55400.0,STARLINK-5632,PAYLOAD,2023-05-16 04:14:35,15.69922988,0.0003271,69.9983,155.9072,271.7697,88.3124,6.7427e-06,5.98e-06,0.0,0 STARLINK-5632,1 55400U 23014K   23136.17679629  .00000598  00000-0  67427-5 0  9999,2 55400  69.9983 155.9072 0003271 271.7697  88.3124 15.69922988 16609,6737.254,91.724,361.323,356.916,0.0
55400.0,STARLINK-5632,PAYLOAD,2023-05-16 11:53:20,15.69927152,0.0002748,69.9994,155.0139,275.9681,84.1202,1.4148e-05,1.489e-05,0.0,0 STARLINK-5632,1 55400U 23014K   23136.49537937  .00001489  00000-0  14148-4 0  9990,2 55400  69.9994 155.0139 0002748 275.9681  84.1202 15.69927152 17591,6737.242,91.724,360.959,357.256,0.0
55400.0,STARLINK-5632,PAYLOAD,2023-05-17 10:49:37,15.69923662,0.0003236,69.9981,152.3248,271.9749,88.1076,3.3963e-06,1.96e-06,0.0,0 STARLINK-5632,1 55400U 23014K   23137.45113068  .00000196  00000-0  33963-5 0  9993,2 55400  69.9981 152.3248 0003236 271.9749  88.1076 15.69923662 16800,6737.252,91.724,361.298,356.937,0.0
55400.0,STARLINK-5632,PAYLOAD,2023-05-18 09:45:54,15.69929291,0.0002913,70.0,149.6399,262.755,97.3315,1.7065e-05,1.84e-05,0.0,0 STARLINK-5632,1 55400U 23014K   23138.40687995  .00001840  00000-0  17065-4 0  9995,2 55400  70.0000 149.6399 0002913 262.7550  97.3315 15.69929291 17892,6737.236,91.724,361.064,357.139,0.0
55400.0,STARLINK-5632,PAYLOAD,2023-05-19 02:35:10,15.69925635,0.0002451,70.0002,147.6689,249.6408,110.4525,6.4055e-06,5.58e-06,0.0,0 STARLINK-5632,1 55400U 23014K   23139.10776479  .00000558  00000-0  64055-5 0  9996,2 55400  70.0002 147.6689 0002451 249.6408 110.4525 15.69925635 17064,6737.247,91.724,360.763,357.46,0.0
55400.0,STARLINK-5632,PAYLOAD,2023-05-19 17:52:42,15.69929032,0.0003317,69.9972,145.8757,273.7693,86.3123,-1.4437e-05,-1.949e-05,0.0,0 STARLINK-5632,1 55400U 23014K   23139.74493471 -.00001949  00000-0 -14437-4 0  9999,2 55400  69.9972 145.8757 0003317 273.7693  86.3123 15.69929032 18105,6737.237,91.724,361.337,356.867,0.0
55400.0,STARLINK-5632,PAYLOAD,2023-05-20 03:03:12,15.69927609,0.0003408,69.9992,144.8028,264.544,95.5367,1.2181e-05,1.252e-05,0.0,0 STARLINK-5632,1 55400U 23014K   23140.12723198  .00001252  00000-0  12181-4 0  9994,2 55400  69.9992 144.8028 0003408 264.5440  95.5367 15.69927609 17228,6737.241,91.724,361.402,356.81,0.0
55400.0,STARLINK-5632,PAYLOAD,2023-05-20 09:10:12,15.69940907,0.000336,69.998,144.0842,264.9006,95.1806,2.4423e-05,2.727e-05,0.0,0 STARLINK-5632,1 55400U 23014K   23140.38208854  .00002727  00000-0  24423-4 0  9999,2 55400  69.9980 144.0842 0003360 264.9006  95.1806 15.69940907 17264,6737.203,91.723,361.332,356.804,0.0
